OBJECT_NAME,OBJECT_ID,EPOCH,MEAN_MOTION,ECCENTRICITY,INCLINATION,RA_OF_ASC_NODE,ARG_OF_PERICENTER,MEAN_ANOMALY,EPHEMERIS_TYPE,CLASSIFICATION_TYPE,NORAD_CAT_ID,ELEMENT_SET_NO,REV_AT_EPOCH,BSTAR,MEAN_MOTION_DOT,MEAN_MOTION_DDOT
FLOCK 4BE-27,2024-149AX,2026-07-11T18:37:32.433312,15.34876993,.00036175,97.3825,274.6446,193.0374,167.0776,0,U,60513,999,10591,.17690294E-3,.5903E-4,0
FLOCK 4BE-9,2024-149AY,2026-07-11T18:18:37.983168,15.41525657,.00033174,97.3792,277.2837,179.3535,180.7716,0,U,60514,999,10610,.2242433E-3,.9324E-4,0
FLOCK 4BE-6,2024-149BA,2026-07-11T19:28:41.090016,15.40253020,.00039323,97.3792,276.6440,183.6952,176.4265,0,U,60516,999,10606,.21158877E-3,.8429E-4,0
FLOCK 4BE-14,2024-149BB,2026-07-11T18:31:29.327808,15.41779712,.0004965,97.3697,276.7638,187.9835,172.1334,0,U,60517,999,10611,.25733624E-3,.10809E-3,0
FLOCK 4BE-1,2024-149BC,2026-07-11T18:17:07.875744,15.43429215,.00046993,97.3781,278.1199,186.2360,173.8830,0,U,60518,999,10616,.2443562E-3,.10843E-3,0
FLOCK 4BE-28,2024-149BD,2026-07-11T17:43:10.547328,15.46087448,.00046568,97.3750,278.8988,185.3336,174.7865,0,U,60519,999,10623,.55740197E-3,.27248E-3,0
IPERDRONE.0,2024-149BE,2026-07-11T19:17:18.263904,15.70604317,.0004181,97.3769,287.2997,175.8604,184.2693,0,U,60520,999,10677,.5345259E-3,.66067E-3,0
TRANSPORTER-11 OBJECT BF,2024-149BF,2026-07-11T19:39:17.009568,16.05014291,.00100316,97.3785,290.9799,241.4014,118.6258,0,U,60521,999,10700,.94114348E-3,.641231E-2,.20214977E-3
CONNECTA IOT-2,2024-149BG,2026-07-11T17:38:48.359616,15.24176198,.00052703,97.3838,270.5108,227.1677,132.9118,0,U,60522,999,10563,.11242701E-3,.2667E-4,0
CONNECTA IOT-4,2024-149BJ,2026-07-11T17:27:18.137664,15.43077624,.00057265,97.3795,277.4017,186.0777,174.0403,0,U,60524,999,10611,.28874882E-3,.12682E-3,0
ORESAT0.5,2024-149BK,2026-07-11T18:51:37.039104,15.46017856,.00059057,97.3727,279.1774,175.8259,184.3040,0,U,60525,999,10627,.26828721E-3,.13017E-3,0
DEIMOS,2024-149BL,2026-07-11T18:24:57.014784,15.45106030,.00055836,97.3784,279.2859,180.7637,179.3604,0,U,60526,999,10624,.24994827E-3,.11745E-3,0
CUAVA-2,2024-149BM,2026-07-11T18:24:52.600608,15.36680681,.0006524,97.3730,274.3362,191.8011,168.3082,0,U,60527,999,10594,.21557183E-3,.7645E-4,0
ERNST,2024-149BN,2026-07-11T00:34:31.362240,15.39824000,.00057878,97.3807,275.9318,194.1304,165.9781,0,U,60528,999,10594,.21573753E-3,.8478E-4,0
TORO,2024-149BQ,2026-07-11T18:42:23.402592,14.96512370,.00012757,97.6782,266.9883,92.1418,267.9950,0,U,60530,999,10363,.54974291E-4,.568E-5,0
HYPSO-2,2024-149BR,2026-07-11T21:38:23.958816,14.98923685,.0001937,97.6841,268.8022,103.4548,256.6891,0,U,60531,999,10375,.17808482E-3,.2095E-4,0
LEMU NGE,2024-149BS,2026-07-11T17:58:21.376992,14.95050620,.00006361,97.6835,267.2124,71.0274,289.1016,0,U,60532,999,10362,.13815626E-3,.1456E-4,0
LEMUR-2-STELLA,2024-149BT,2026-07-11T18:22:22.824480,15.12328256,.00011848,97.6740,275.3352,113.7387,246.3968,0,U,60533,999,10421,.37866771E-3,.6496E-4,0
SATELIOT_2,2024-149BU,2026-07-11T18:25:21.106560,14.96452674,.00017941,97.6827,267.2757,80.5977,279.5448,0,U,60534,999,10364,.11706645E-3,.1271E-4,0
NIGHTJAR,2024-149BV,2026-07-11T18:08:23.916768,14.99153623,.00024677,97.6833,269.1173,102.9438,257.2061,0,U,60535,999,14655,.18559886E-3,.2199E-4,0
LEMUR-2-MARHISYAM,2024-149BW,2026-07-11T18:07:21.622368,15.11737522,.00028216,97.6885,275.7985,75.4227,284.7316,0,U,60536,999,10419,.34253829E-3,.5773E-4,0
SATELIOT_4,2024-149BX,2026-07-11T18:33:45.574560,14.96754623,.00013587,97.6735,266.7920,8.5824,351.5421,0,U,60537,999,10365,.71270578E-4,.758E-5,0
PICO-02A021,2024-149BY,2026-07-08T17:33:38.084256,15.03460922,.00032008,97.6747,268.3815,317.3767,42.7209,0,U,60538,999,10297,.19830685E-3,.264E-4,0
ICEYE-X43,2024-149BZ,2026-07-11T18:46:29.736768,14.99780913,.00067542,97.6813,269.4175,2.2764,357.8489,0,U,60539,999,10380,.10053928E-3,.1184E-4,0
HAWK-10A,2024-149CA,2026-07-11T21:48:14.280768,14.96588901,.00034487,97.6893,268.3954,17.5419,342.5921,0,U,60540,999,10368,.67051907E-4,.706E-5,0
UMBRA-09,2024-149CB,2026-07-09T05:03:03.129696,15.18723998,.0001785,97.6970,277.8023,214.0416,146.0703,0,U,60541,999,10406,.51690564E-3,.10667E-3,0
QPS-SAR-8 (AMATERU-IV),2024-149CC,2026-07-11T22:32:08.018016,15.04379799,.00041718,97.6668,271.8841,54.2282,305.9331,0,U,60542,999,10399,.19864881E-3,.2711E-4,0
ARCTIC WEATHER SATELLITE,2024-149CD,2026-07-08T18:44:09.245184,14.89821552,.0003307,97.6793,259.6278,64.1630,295.9929,0,U,60543,999,10251,.69970158E-4,.618E-5,0
CAPELLA-15 (ACADIA-5),2024-149CE,2026-07-08T18:40:01.354944,14.92382217,.00033866,97.6776,262.1397,8.7995,351.3283,0,U,60544,999,10307,.20207209E-3,.2013E-4,0
HAWK-10B,2024-149CF,2026-07-11T18:35:28.831200,14.96587830,.0005811,97.6812,267.5940,27.0134,333.1389,0,U,60545,999,10366,.59343572E-4,.618E-5,0
